    <HTML><HEAD><TITLE>Human Space Flight (HSF) - Realtime Data
    </TITLE>
         
    
    <LINK REL="stylesheet" HREF="/hsf_home_style.css" TYPE="text/css"><LINK REL="stylesheet" HREF="/realdata/tracking/clocks.css" TYPE="text/css"><!--
    ////    *_OVER.JS PROVIDES HTML FOR GRAPHICS    ////
    --><SCRIPT TYPE="text/javascript" LANGUAGE="javascript">
    
      var firstLevel = '<'+'script language="javascript" src="/!_js_files/hsf_realdata_over.js"></'+'script>';
    
    </SCRIPT>
    
    <!--
    ////    *_NAV.JS PROVIDES MOUSEOVERS    ////
    -->
    
    <SCRIPT TYPE="text/javascript" SRC="/!_js_files/hsf_realdata_nav.js" LANGUAGE="javascript"></SCRIPT>
    
      
    <SCRIPT LANGUAGE="javascript">
    <!---
    
    function buildArray(){
    var a = buildArray.arguments;
    for (i=0; i<a.length; i++){
    this[i] = a[i];
    }
    
    this.length = a.length;
    } 
    
    var urls1 = new buildArray("",
    "ksclive/index.html",
    "ksclive/kscv01.html",
    "ksclive/kscv02.html",
    "ksclive/kscv03.html",
    "ksclive/kscv04.html",
    "ksclive/kscv05.html",
    "ksclive/kscv06.html",
    "ksclive/kscv07.html",
    "ksclive/kscv08.html",
    "ksclive/kscv09.html",
    "ksclive/kscv10.html",
    "ksclive/kscv11.html",
    "ksclive/kscv12.html",
    "ksclive/kscv13.html",
    "ksclive/kscv14.html",
    "ksclive/kscv15.html"); 
    
    function go(which, num, win){
    n = which.selectedIndex;
    
    if (n != 0){
    var url = eval("urls" + num + "[n]")
    
    if (win){
    openWindow(url); 
    }
    
    else{ 
    location.href = url;
    }
    }
    }
    
    //-->
    </SCRIPT></HEAD><BODY ALINK="#ff0000" VLINK="#800000" LINK="#cc0000" TEXT="#000000" BGCOLOR="#ffffff" > 
    
    
         
    
    <!-- 
    ////    BEGIN --    ////
    ////    IMAGE MAP FOR 2ND LEVEL MENUS    ////
    -->
    
      <MAP NAME="level2menu"><AREA ONMOUSEOUT="timeoutId = setTimeout('menuLinks(0)',1);" ONMOUSEOVER="clearTimeout (timeoutId);" HREF="" ALT="" COORDS="0,-1,67,26" SHAPE="RECT"><AREA ONMOUSEOUT="timeoutId = setTimeout('menuLinks(0)',1);" ONMOUSEOVER="clearTimeout (timeoutId);" HREF="" ALT="" COORDS="67,-1,134,26" SHAPE="RECT"><AREA ONMOUSEOUT="timeoutId = setTimeout('menuLinks(0)',1);" ONMOUSEOVER="clearTimeout (timeoutId);" HREF="" ALT="" COORDS="134,-1,201,26" SHAPE="RECT"><AREA ONMOUSEOUT="timeoutId = setTimeout('menuLinks(0)',1);" ONMOUSEOVER="clearTimeout (timeoutId);" HREF="" ALT="" COORDS="201,-1,268,26" SHAPE="RECT"><AREA ONMOUSEOUT="timeoutId = setTimeout('menuLinks(0)',1);" ONMOUSEOVER="clearTimeout (timeoutId);" HREF="" ALT="" COORDS="268,-1,335,26" SHAPE="RECT"><AREA ONMOUSEOUT="timeoutId = setTimeout('menuLinks(0)',1);" ONMOUSEOVER="clearTimeout (timeoutId);" HREF="" ALT="" COORDS="335,-1,402,26" SHAPE="RECT"><AREA ONMOUSEOUT="timeoutId = setTimeout('menuLinks(0)',1);" ONMOUSEOVER="clearTimeout (timeoutId);" HREF="" ALT="" COORDS="402,-1,469,26" SHAPE="RECT"><AREA ONMOUSEOUT="timeoutId = setTimeout('menuLinks(0)',1);" ONMOUSEOVER="clearTimeout (timeoutId);" HREF="" ALT="" COORDS="469,-1,536,26" SHAPE="RECT"><AREA ONMOUSEOUT="timeoutId = setTimeout('menuLinks(0)',1);" ONMOUSEOVER="clearTimeout (timeoutId);" HREF="" ALT="" COORDS="536,-1,600,26" SHAPE="RECT"></MAP>
    
    <!-- 
    ////    END --    ////
    ////    IMAGE MAP FOR 2ND LEVEL MENUS    ////
    -->
    
    <TABLE ALIGN="CENTER" BORDER="0" WIDTH="600" CELLPADDING="0" CELLSPACING="0"><TR><TD><IMG USEMAP="#Map" BORDER="0" WIDTH="600" HEIGHT="55" SRC="/graphics/new_home/hsf_hdr_main2.gif"><MAP NAME="Map"><AREA TITLE="Return to Human Space Flight home page" HREF="/index.html" ALT="Return to Human Space Flight home page" COORDS="424,26,587,46" SHAPE="RECT"></MAP></TD></TR><!-- 
    ////    BEGIN -- 1ST LEVEL MENU OPTIONS    ////
    ////    REFERENCES *_OVER.JS WHICH PROVIDES HTML FOR GRAPHICS    ////
    ////    THE VARIABLE firstLevel IS CALLED INSIDE THE HEAD TAG    ////
    --><TR><TD WIDTH="600" VALIGN="TOP" COLSPAN="3"> 
          <SCRIPT LANGUAGE="javascript">
            <!-- 
              document.write(firstLevel)
            //-->
          </SCRIPT></TD></TR><!-- 
    ////    END -- 1ST LEVEL MENU OPTIONS    ////
    --><!-- 
    ////    BEGIN -- 2ND LEVEL MENU OPTIONS    ////
    ////    THIS SECTION CALLS THE MENULINKS FUNCTION    ////
    --><TR><TD WIDTH="600" VALIGN="TOP" COLSPAN="3"><IMG NAME="low1" ALT="" USEMAP="#level2menu" BORDER="0" WIDTH="600" HEIGHT="24" SRC="/graphics/new_home/hsf_l2.gif"></TD></TR><!-- 
    ////    END -- 2ND LEVEL MENU OPTIONS    ////
    --><TR><TD><IMG WIDTH="600" HEIGHT="5" SRC="/graphics/new_home/hsf_hdr_btm.gif"></TD></TR></TABLE><BR><A NAME="skipLinks"></A>
    
    
    <!--Begin Main Content Area Here-->
    
        
    <table width="600" border="0" cellspacing="0" cellpadding="0" align="center">
        
          <tr>
        
            <td>
        
            <PRE>
    
  <B> ISS  TRAJECTORY DATA</B>
 
   Lift off time (UTC)  :  N/A
   Area (sq ft)  :  17659.2707
   Drag Coefficient (Cd)  :   2.00
   Monthly MSFC 50% solar flux (F10.7-jansky)  :   101.7
   Monthly MSFC 50% earth geomagnetic index (Kp)  :   2.975
   ET - UTC  (sec) :   68.18
   UT1 - UTC (sec) :    0.00
 
 
   Maneuvers contained within the current ephemeris are as follows:
 
 
   IMPULSIVE TIG (GMT)   M50 DVx(FPS)      LVLH DVx(FPS)      DVmag(FPS) 
   IMPULSIVE TIG (MET)   M50 DVy(FPS)      LVLH DVy(FPS)      Invar Sph HA
   DT                    M50 DVz(FPS)      LVLH DVz(FPS)      Invar Sph HP 
   ------------------------------------------------------------------------
   113/17:08:00.000           0.0               0.0              0.0    
   N/A                        0.0               0.0              221.3  
   000/00:00:00.000           0.0               0.0              213.8  
   
 
 
    Coasting Arc #1 (Orbit 3629)
    ---------------------------------------
 
    Vector Time (GMT): 2016/113/08:50:29.423
    Vector Time (MET): N/A
    Weight (LBS)     : 945238.6
 
              M50 Cartesian                         M50 Keplerian  
    -----------------------------------       --------------------------------
     X    =       -4520265.49                 A    =         6785988.76  meter
     Y    =        4315900.62  meter          E    =           .0014774
     Z    =        2628333.80                 I    =           51.50700
     XDOT =      -5169.343180                 Wp   =           97.16565
     YDOT =      -2225.702906  meter/sec      RA   =          335.86311  deg
     ZDOT =      -5212.223015                 TA   =           53.14495
                                              MA   =           53.00958
                                              Ha   =            221.319  n.mi
                                              Hp   =            213.918
 
              M50 Cartesian                         J2K Cartesian  
    -----------------------------------       --------------------------------
     X    =      -14830267.35                 X    =        -4580958.56
     Y    =       14159778.94  feet           Y    =         4265012.83  meter
     Z    =        8623142.40                 Z    =         2606227.37
     XDOT =     -16959.787337                 XDOT =       -5118.751407
     YDOT =      -7302.174890  feet/sec       YDOT =       -2283.227414  meter/sec
     ZDOT =     -17100.469210                 ZDOT =       -5237.211827
 
              TDR Cartesian                         TDR Cartesian  
    -----------------------------------       --------------------------------
     X    =      -18435763.53                 X    =        -5619220.72
     Y    =        9067521.09  feet           Y    =         2763780.43  meter
     Z    =        8526279.29                 Z    =         2598809.93
     XDOT =     -13237.182506                 XDOT =       -4034.693228
     YDOT =     -10659.078793  feet/sec       YDOT =       -3248.887216  meter/sec
     ZDOT =     -17208.552840                 ZDOT =       -5245.166906
  
  
    The mean element set is posted at the UTC for which position is
    just north of the next ascending node relative to the above
    vector time
 
 
    TWO LINE MEAN ELEMENT SET
  
    ISS
    1 25544U 98067A   16113.40581334  .00016717  00000-0  10270-3 0  9007
    2 25544  51.6433 336.2795 0001797  50.4408 309.6903 15.54293174 36307
  
  
    Satellite: ISS
    Catalog Number: 25544
    Epoch time:      16113.40581334   =   yrday.fracday
    Element set:     900
    Inclination:       51.6433  deg
    RA of node:       336.2795  deg
    Eccentricity:     .0001797     
    Arg of perigee:    50.4408  deg
    Mean anomaly:     309.6903  deg
    Mean motion:   15.54293174  rev/day
    Decay rate:    1.67170E-04  rev/day^2
    Epoch rev:            3630
    Checksum:              298
 
 
    Coasting Arc #2 (Orbit 3634)
    ---------------------------------------
 
    Vector Time (GMT): 2016/113/17:08:00.000
    Vector Time (MET): N/A
    Weight (LBS)     : 945238.6
 
              M50 Cartesian                         M50 Keplerian  
    -----------------------------------       --------------------------------
     X    =        -238652.11                 A    =         6777623.91  meter
     Y    =       -4430332.37  meter          E    =           .0014943
     Z    =       -5136902.28                 I    =           51.46749
     XDOT =       7193.038245                 Wp   =           97.71902
     YDOT =      -2143.997864  meter/sec      RA   =          334.14177  deg
     ZDOT =       1516.747851                 TA   =          186.93811
                                              MA   =          186.95881
                                              Ha   =            221.255  n.mi
                                              Hp   =            213.803
 
